STARLINK-1008           
1 44714U 19074B   24303.16471469  .00014028  00000+0  95926-3 0  9999
2 44714  53.0541 255.6079 0001757  96.6875 263.4314 15.06381615274085
STARLINK-1009           
1 44715U 19074C   24302.88826744 -.00001073  00000+0 -53172-4 0  9994
2 44715  53.0532 256.8446 0001464  93.6110 266.5046 15.06375391273866
STARLINK-1010           
1 44716U 19074D   24303.17208407  .00001829  00000+0  14171-3 0  9990
2 44716  53.0553 255.5702 0002646  83.8150 276.3140 15.06387023274061
STARLINK-1011           
1 44717U 19074E   24302.63945617  .00000552  00000+0  55967-4 0  9993
2 44717  53.0542 277.9616 0001337  83.6855 276.4286 15.06376510273552
STARLINK-1012           
1 44718U 19074F   24303.14259216  .00002658  00000+0  19733-3 0  9993
2 44718  53.0535 255.7038 0001519  84.6802 275.4360 15.06387130274072
STARLINK-1013           
1 44719U 19074G   24302.88457766  .00001191  00000+0  98912-4 0  9992
2 44719  53.0541 256.8611 0001466  93.8769 266.2388 15.06378317274990